{
  "type": "FeatureCollection",
  "features": [
    {
      "type": "Feature",
      "properties": {
        "norad_id": 36036,
        "name": "SMOS",
        "group": "resource",
        "lat": -8.628692598257162,
        "lon": 0.5893567146498448,
        "alt_km": 763.5470546579836,
        "timestamp": "2025-12-22T23:36:20.356465+00:00",
        "meta_object_name": "SMOS",
        "meta_object_id": "2009-059A",
        "meta_epoch": "2025-12-22T11:03:25.345728",
        "meta_mean_motion": 14.39749658,
        "meta_eccentricity": 0.00010588,
        "meta_inclination": 98.438,
        "meta_ra_of_asc_node": 181.3652,
        "meta_arg_of_pericenter": 83.272,
        "meta_mean_anomaly": 276.8589,
        "meta_ephemeris_type": 0,
        "meta_classification_type": "U",
        "meta_norad_cat_id": 36036,
        "meta_element_set_no": 999,
        "meta_rev_at_epoch": 84802,
        "meta_bstar": 0.00013199623,
        "meta_mean_motion_dot": 3.7e-06,
        "meta_mean_motion_ddot": 0,
        "tle_line1": "1 36036U 09059A   25356.46071002  .00000370  00000+0  13200-3 0  9990",
        "tle_line2": "2 36036  98.4380 181.3652 0001058  83.2720 276.8589 14.39749658848027"
      },
      "geometry": {
        "type": "Point",
        "coordinates": [
          0.5893567146498448,
          -8.628692598257162
        ]
      }
    },
    {
      "type": "Feature",
      "properties": {
        "norad_id": 36110,
        "name": "YAOGAN-7",
        "group": "resource",
        "lat": -27.15961770374008,
        "lon": -117.14336484130446,
        "alt_km": 641.0927811444799,
        "timestamp": "2025-12-22T23:36:20.356475+00:00",
        "meta_object_name": "YAOGAN-7",
        "meta_object_id": "2009-069A",
        "meta_epoch": "2025-12-22T04:13:43.452768",
        "meta_mean_motion": 14.77745547,
        "meta_eccentricity": 0.00233887,
        "meta_inclination": 98.0296,
        "meta_ra_of_asc_node": 237.8993,
        "meta_arg_of_pericenter": 249.0784,
        "meta_mean_anomaly": 110.7922,
        "meta_ephemeris_type": 0,
        "meta_classification_type": "U",
        "meta_norad_cat_id": 36110,
        "meta_element_set_no": 999,
        "meta_rev_at_epoch": 86348,
        "meta_bstar": 8.7982108e-05,
        "meta_mean_motion_dot": 5.8e-06,
        "meta_mean_motion_ddot": 0,
        "tle_line1": "1 36110U 09069A   25356.17619737  .00000580  00000+0  87982-4 0  9997",
        "tle_line2": "2 36110  98.0296 237.8993 0023388 249.0784 110.7922 14.77745547863488"
      },
      "geometry": {
        "type": "Point",
        "coordinates": [
          -117.14336484130446,
          -27.15961770374008
        ]
      }
    },
    {
      "type": "Feature",
      "properties": {
        "norad_id": 36605,
        "name": "TANDEM-X",
        "group": "resource",
        "lat": -56.78135672642523,
        "lon": 13.731909275449954,
        "alt_km": 516.3702299588604,
        "timestamp": "2025-12-22T23:36:20.356485+00:00",
        "meta_object_name": "TANDEM-X",
        "meta_object_id": "2010-030A",
        "meta_epoch": "2025-12-22T14:22:24.829536",
        "meta_mean_motion": 15.19158129,
        "meta_eccentricity": 0.0001799,
        "meta_inclination": 97.4444,
        "meta_ra_of_asc_node": 1.8349,
        "meta_arg_of_pericenter": 78.6886,
        "meta_mean_anomaly": 281.4551,
        "meta_ephemeris_type": 0,
        "meta_classification_type": "U",
        "meta_norad_cat_id": 36605,
        "meta_element_set_no": 999,
        "meta_rev_at_epoch": 85983,
        "meta_bstar": 3.9682032e-05,
        "meta_mean_motion_dot": 7.67e-06,
        "meta_mean_motion_ddot": 0,
        "tle_line1": "1 36605U 10030A   25356.59889849  .00000767  00000+0  39682-4 0  9996",
        "tle_line2": "2 36605  97.4444   1.8349 0001799  78.6886 281.4551 15.19158129859839"
      },
      "geometry": {
        "type": "Point",
        "coordinates": [
          13.731909275449954,
          -56.78135672642523
        ]
      }
    },
    {
      "type": "Feature",
      "properties": {
        "norad_id": 36795,
        "name": "CARTOSAT-2B",
        "group": "resource",
        "lat": -62.991569708883155,
        "lon": 61.24809762458878,
        "alt_km": 643.5836745671813,
        "timestamp": "2025-12-22T23:36:20.356496+00:00",
        "meta_object_name": "CARTOSAT-2B",
        "meta_object_id": "2010-035A",
        "meta_epoch": "2025-12-22T14:09:02.928672",
        "meta_mean_motion": 14.78739922,
        "meta_eccentricity": 0.00127573,
        "meta_inclination": 97.784,
        "meta_ra_of_asc_node": 45.2998,
        "meta_arg_of_pericenter": 47.4812,
        "meta_mean_anomaly": 312.7474,
        "meta_ephemeris_type": 0,
        "meta_classification_type": "U",
        "meta_norad_cat_id": 36795,
        "meta_element_set_no": 999,
        "meta_rev_at_epoch": 83375,
        "meta_bstar": 0.00015085181,
        "meta_mean_motion_dot": 1.059e-05,
        "meta_mean_motion_ddot": 0,
        "tle_line1": "1 36795U 10035A   25356.58961723  .00001059  00000+0  15085-3 0  9997",
        "tle_line2": "2 36795  97.7840  45.2998 0012757  47.4812 312.7474 14.78739922833758"
      },
      "geometry": {
        "type": "Point",
        "coordinates": [
          61.24809762458878,
          -62.991569708883155
        ]
      }
    },
    {
      "type": "Feature",
      "properties": {
        "norad_id": 36834,
        "name": "YAOGAN-10",
        "group": "resource",
        "lat": -52.8265561965209,
        "lon": -173.84161066031191,
        "alt_km": 622.5530404001256,
        "timestamp": "2025-12-22T23:36:20.356506+00:00",
        "meta_object_name": "YAOGAN-10",
        "meta_object_id": "2010-038A",
        "meta_epoch": "2025-12-22T15:08:08.521152",
        "meta_mean_motion": 14.84640124,
        "meta_eccentricity": 0.00013235,
        "meta_inclination": 97.9128,
        "meta_ra_of_asc_node": 16.3767,
        "meta_arg_of_pericenter": 78.6418,
        "meta_mean_anomaly": 69.7612,
        "meta_ephemeris_type": 0,
        "meta_classification_type": "U",
        "meta_norad_cat_id": 36834,
        "meta_element_set_no": 999,
        "meta_rev_at_epoch": 83100,
        "meta_bstar": 0.00016547646,
        "meta_mean_motion_dot": 1.345e-05,
        "meta_mean_motion_ddot": 0,
        "tle_line1": "1 36834U 10038A   25356.63065418  .00001345  00000+0  16548-3 0  9999",
        "tle_line2": "2 36834  97.9128  16.3767 0001323  78.6418  69.7612 14.84640124831002"
      },
      "geometry": {
        "type": "Point",
        "coordinates": [
          -173.84161066031191,
          -52.8265561965209
        ]
      }
    },
    {
      "type": "Feature",
      "properties": {
        "norad_id": 37216,
        "name": "COSMO-SKYMED 4",
        "group": "resource",
        "lat": 64.31615884833916,
        "lon": 161.41462868164285,
        "alt_km": 615.3126581806164,
        "timestamp": "2025-12-22T23:36:20.356516+00:00",
        "meta_object_name": "COSMO-SKYMED 4",
        "meta_object_id": "2010-060A",
        "meta_epoch": "2025-12-22T13:35:23.404704",
        "meta_mean_motion": 14.82155052,
        "meta_eccentricity": 0.0001403,
        "meta_inclination": 97.88,
        "meta_ra_of_asc_node": 177.7413,
        "meta_arg_of_pericenter": 81.8876,
        "meta_mean_anomaly": 278.2496,
        "meta_ephemeris_type": 0,
        "meta_classification_type": "U",
        "meta_norad_cat_id": 37216,
        "meta_element_set_no": 999,
        "meta_rev_at_epoch": 81840,
        "meta_bstar": 2.0530383e-05,
        "meta_mean_motion_dot": 1.11e-06,
        "meta_mean_motion_ddot": 0,
        "tle_line1": "1 37216U 10060A   25356.56624311  .00000111  00000+0  20530-4 0  9991",
        "tle_line2": "2 37216  97.8800 177.7413 0001403  81.8876 278.2496 14.82155052818401"
      },
      "geometry": {
        "type": "Point",
        "coordinates": [
          161.41462868164285,
          64.31615884833916
        ]
      }
    },
    {
      "type": "Feature",
      "properties": {
        "norad_id": 37387,
        "name": "RESOURCESAT-2",
        "group": "resource",
        "lat": -38.36404489002705,
        "lon": 67.5208759030143,
        "alt_km": 823.7699650983232,
        "timestamp": "2025-12-22T23:36:20.356526+00:00",
        "meta_object_name": "RESOURCESAT-2",
        "meta_object_id": "2011-015A",
        "meta_epoch": "2025-12-22T11:57:49.724352",
        "meta_mean_motion": 14.21600948,
        "meta_eccentricity": 0.00059648,
        "meta_inclination": 98.7863,
        "meta_ra_of_asc_node": 60.006,
        "meta_arg_of_pericenter": 16.0942,
        "meta_mean_anomaly": 344.0424,
        "meta_ephemeris_type": 0,
        "meta_classification_type": "U",
        "meta_norad_cat_id": 37387,
        "meta_element_set_no": 999,
        "meta_rev_at_epoch": 76107,
        "meta_bstar": 8.1849992e-05,
        "meta_mean_motion_dot": 1.35e-06,
        "meta_mean_motion_ddot": 0,
        "tle_line1": "1 37387U 11015A   25356.49849218  .00000135  00000+0  81850-4 0  9996",
        "tle_line2": "2 37387  98.7863  60.0060 0005964  16.0942 344.0424 14.21600948761076"
      },
      "geometry": {
        "type": "Point",
        "coordinates": [
          67.5208759030143,
          -38.36404489002705
        ]
      }
    }
  ]
}